{
    "links": {
        "self": "http://www.neowsapp.com/rest/v1/neo/3989149?api_key=iIulBulltgU6a56xZRHN4H3l9WmuAYTsLGpBGhQ2"
    },
    "id": "3989149",
    "neo_reference_id": "3989149",
    "name": "(2020 BK6)",
    "designation": "2020 BK6",
    "nasa_jpl_url": "http://ssd.jpl.nasa.gov/sbdb.cgi?sstr=3989149",
    "absolute_magnitude_h": 25.529,
    "estimated_diameter": {
        "kilometers": {
            "estimated_diameter_min": 0.0208331517,
            "estimated_diameter_max": 0.0465843434
        },
        "meters": {
            "estimated_diameter_min": 20.8331517169,
            "estimated_diameter_max": 46.5843434245
        },
        "miles": {
            "estimated_diameter_min": 0.0129451163,
            "estimated_diameter_max": 0.0289461601
        },
        "feet": {
            "estimated_diameter_min": 68.3502374788,
            "estimated_diameter_max": 152.8357772808
        }
    },
    "is_potentially_hazardous_asteroid": false,
    "close_approach_data": [
        {
            "close_approach_date": "2020-01-29",
            "close_approach_date_full": "2020-Jan-29 08:38",
            "epoch_date_close_approach": 1580287080000,
            "relative_velocity": {
                "kilometers_per_second": "7.6863413258",
                "kilometers_per_hour": "27670.8287730104",
                "miles_per_hour": "17193.5769117631"
            },
            "miss_distance": {
                "astronomical": "0.0977456881",
                "lunar": "38.0230726709",
                "kilometers": "14622546.741444347",
                "miles": "9086029.2203601086"
            },
            "orbiting_body": "Earth"
        }
    ],
    "orbital_data": {
        "orbit_id": "2",
        "orbit_determination_date": "2020-02-01 05:47:43",
        "first_observation_date": "2020-01-21",
        "last_observation_date": "2020-01-31",
        "data_arc_in_days": 10,
        "observations_used": 23,
        "orbit_uncertainty": "8",
        "minimum_orbit_intersection": ".0976118",
        "jupiter_tisserand_invariant": "4.801",
        "epoch_osculation": "2458871.5",
        "eccentricity": ".2111084206732875",
        "semi_major_axis": "1.358144363743147",
        "inclination": "13.75273113117443",
        "ascending_node_longitude": "123.1270791314417",
        "orbital_period": "578.1191165784791",
        "perihelion_distance": "1.071428652067004",
        "perihelion_argument": "22.46501730983135",
        "aphelion_distance": "1.644860075419289",
        "perihelion_time": "2458894.913104965490",
        "mean_anomaly": "345.4204478871748",
        "mean_motion": ".6227090398439201",
        "equinox": "J2000",
        "orbit_class": {
            "orbit_class_type": "AMO",
            "orbit_class_description": "Near-Earth asteroid orbits similar to that of 1221 Amor",
            "orbit_class_range": "1.017 AU < q (perihelion) < 1.3 AU"
        }
    },
    "is_sentry_object": false
}